{"type": "FeatureCollection", "features": [ {"type": "Feature", "properties": {"norad_id": 42738, "name": "QZS-2 (QZSS/PRN 194)", "group": "gnss", "lat": 24.24118310071644, "lon": 33.01210591510109, "alt_km": 37651.317900838374, "timestamp": "2025-12-19T10:50:01.443560+00:00", "meta": {"OBJECT_NAME": "QZS-2 (QZSS/PRN 194)", "OBJECT_ID": "2017-028A", "EPOCH": "2025-12-18T13:55:30.556128", "MEAN_MOTION": 1.00281517, "ECCENTRICITY": 0.07566042, "INCLINATION": 39.7045, "RA_OF_ASC_NODE": 245.7969, "ARG_OF_PERICENTER": 269.5406, "MEAN_ANOMALY": 282.9842, "EPHEMERIS_TYPE": 0, "CLASSIFICATION_TYPE": "U", "NORAD_CAT_ID": 42738, "ELEMENT_SET_NO": 999, "REV_AT_EPOCH": 581, "BSTAR": 0, "MEAN_MOTION_DOT": -1.25e-06, "MEAN_MOTION_DDOT": 0}, "tle": {"line1": "1 42738U 17028A   25352.58021477 -.00000125  00000+0  00000+0 0  9990", "line2": "2 42738  39.7045 245.7969 0756604 269.5406 282.9842  1.00281517  5810"}}, "geometry": {"type": "Point", "coordinates": [33.01210591510109, 24.24118310071644]}}, {"type": "Feature", "properties": {"norad_id": 42917, "name": "QZS-3 (QZSS/PRN 199)", "group": "gnss", "lat": -0.0011891531630921711, "lon": 17.834850382363374, "alt_km": 35788.90217670257, "timestamp": "2025-12-19T10:50:01.443575+00:00", "meta": {"OBJECT_NAME": "QZS-3 (QZSS/PRN 199)", "OBJECT_ID": "2017-048A", "EPOCH": "2025-12-18T22:27:31.961376", "MEAN_MOTION": 1.0026672, "ECCENTRICITY": 0.00018074, "INCLINATION": 0.0246, "RA_OF_ASC_NODE": 182.0795, "ARG_OF_PERICENTER": 95.9226, "MEAN_ANOMALY": 273.7016, "EPHEMERIS_TYPE": 0, "CLASSIFICATION_TYPE": "U", "NORAD_CAT_ID": 42917, "ELEMENT_SET_NO": 999, "REV_AT_EPOCH": 3045, "BSTAR": 0, "MEAN_MOTION_DOT": 0, "MEAN_MOTION_DDOT": 0}, "tle": {"line1": "1 42917U 17048A   25352.93578659  .00000000  00000+0  00000+0 0  9990", "line2": "2 42917   0.0246 182.0795 0001807  95.9226 273.7016  1.00266720 30450"}}, "geometry": {"type": "Point", "coordinates": [17.834850382363374, -0.0011891531630921711]}}, {"type": "Feature", "properties": {"norad_id": 42939, "name": "COSMOS 2522 (752)", "group": "gnss", "lat": 36.86023802916533, "lon": -140.59775677679517, "alt_km": 19141.931820488353, "timestamp": "2025-12-19T10:50:01.443587+00:00", "meta": {"OBJECT_NAME": "COSMOS 2522 (752)", "OBJECT_ID": "2017-055A", "EPOCH": "2025-12-17T23:44:12.763104", "MEAN_MOTION": 2.13102073, "ECCENTRICITY": 0.00063915, "INCLINATION": 64.076, "RA_OF_ASC_NODE": 198.0502, "ARG_OF_PERICENTER": 224.057, "MEAN_ANOMALY": 135.9735, "EPHEMERIS_TYPE": 0, "CLASSIFICATION_TYPE": "U", "NORAD_CAT_ID": 42939, "ELEMENT_SET_NO": 999, "REV_AT_EPOCH": 6411, "BSTAR": 0, "MEAN_MOTION_DOT": 1.1e-06, "MEAN_MOTION_DDOT": 0}, "tle": {"line1": "1 42939U 17055A   25351.98903661  .00000110  00000+0  00000+0 0  9993", "line2": "2 42939  64.0760 198.0502 0006391 224.0570 135.9735  2.13102073 64110"}}, "geometry": {"type": "Point", "coordinates": [-140.59775677679517, 36.86023802916533]}}, {"type": "Feature", "properties": {"norad_id": 42965, "name": "QZS-4 (QZSS/PRN 195)", "group": "gnss", "lat": 28.269366465821683, "lon": 25.280628602314238, "alt_km": 37934.18913542736, "timestamp": "2025-12-19T10:50:01.443599+00:00", "meta": {"OBJECT_NAME": "QZS-4 (QZSS/PRN 195)", "OBJECT_ID": "2017-062A", "EPOCH": "2025-12-18T12:29:45.417120", "MEAN_MOTION": 1.00251537, "ECCENTRICITY": 0.07515287, "INCLINATION": 40.2229, "RA_OF_ASC_NODE": 345.7974, "ARG_OF_PERICENTER": 271.6693, "MEAN_ANOMALY": 153.2789, "EPHEMERIS_TYPE": 0, "CLASSIFICATION_TYPE": "U", "NORAD_CAT_ID": 42965, "ELEMENT_SET_NO": 999, "REV_AT_EPOCH": 2999, "BSTAR": 0, "MEAN_MOTION_DOT": -3.37e-06, "MEAN_MOTION_DDOT": 0}, "tle": {"line1": "1 42965U 17062A   25352.52066455 -.00000337  00000+0  00000+0 0  9994", "line2": "2 42965  40.2229 345.7974 0751528 271.6693 153.2789  1.00251537 29996"}}, "geometry": {"type": "Point", "coordinates": [25.280628602314238, 28.269366465821683]}}, {"type": "Feature", "properties": {"norad_id": 43001, "name": "BEIDOU-3 M1 (C19)", "group": "gnss", "lat": 37.67027743791085, "lon": -141.6304336341041, "alt_km": 21549.42767630725, "timestamp": "2025-12-19T10:50:01.443611+00:00", "meta": {"OBJECT_NAME": "BEIDOU-3 M1 (C19)", "OBJECT_ID": "2017-069A", "EPOCH": "2025-12-18T04:17:57.582816", "MEAN_MOTION": 1.86231385, "ECCENTRICITY": 0.00094787, "INCLINATION": 56.5315, "RA_OF_ASC_NODE": 69.054, "ARG_OF_PERICENTER": 302.4467, "MEAN_ANOMALY": 57.4905, "EPHEMERIS_TYPE": 0, "CLASSIFICATION_TYPE": "U", "NORAD_CAT_ID": 43001, "ELEMENT_SET_NO": 999, "REV_AT_EPOCH": 5523, "BSTAR": 0, "MEAN_MOTION_DOT": -6.5e-07, "MEAN_MOTION_DDOT": 0}, "tle": {"line1": "1 43001U 17069A   25352.17913869 -.00000065  00000+0  00000+0 0  9992", "line2": "2 43001  56.5315  69.0540 0009478 302.4467  57.4905  1.86231385 55235"}}, "geometry": {"type": "Point", "coordinates": [-141.6304336341041, 37.67027743791085]}}, {"type": "Feature", "properties": {"norad_id": 43002, "name": "BEIDOU-3 M2 (C20)", "group": "gnss", "lat": 4.767251466701027, "lon": -114.09384441639757, "alt_km": 21544.32702973056, "timestamp": "2025-12-19T10:50:01.443623+00:00", "meta": {"OBJECT_NAME": "BEIDOU-3 M2 (C20)", "OBJECT_ID": "2017-069B", "EPOCH": "2025-12-18T15:42:26.273664", "MEAN_MOTION": 1.86230996, "ECCENTRICITY": 0.00064765, "INCLINATION": 56.5319, "RA_OF_ASC_NODE": 69.0743, "ARG_OF_PERICENTER": 330.8658, "MEAN_ANOMALY": 29.1292, "EPHEMERIS_TYPE": 0, "CLASSIFICATION_TYPE": "U", "NORAD_CAT_ID": 43002, "ELEMENT_SET_NO": 999, "REV_AT_EPOCH": 5523, "BSTAR": 0, "MEAN_MOTION_DOT": -6.1e-07, "MEAN_MOTION_DDOT": 0}, "tle": {"line1": "1 43002U 17069B   25352.65447076 -.00000061  00000+0  00000+0 0  9994", "line2": "2 43002  56.5319  69.0743 0006476 330.8658  29.1292  1.86230996 55239"}}, "geometry": {"type": "Point", "coordinates": [-114.09384441639757, 4.767251466701027]}}, {"type": "Feature", "properties": {"norad_id": 43055, "name": "GSAT0215 (GALILEO 19)", "group": "gnss", "lat": -34.145939129728916, "lon": -161.7389075339725, "alt_km": 23223.21735404667, "timestamp": "2025-12-19T10:50:01.443636+00:00", "meta": {"OBJECT_NAME": "GSAT0215 (GALILEO 19)", "OBJECT_ID": "2017-079A", "EPOCH": "2025-12-18T08:21:56.206080", "MEAN_MOTION": 1.70474068, "ECCENTRICITY": 0.00012335, "INCLINATION": 55.1282, "RA_OF_ASC_NODE": 226.4832, "ARG_OF_PERICENTER": 345.8587, "MEAN_ANOMALY": 14.2435, "EPHEMERIS_TYPE": 0, "CLASSIFICATION_TYPE": "U", "NORAD_CAT_ID": 43055, "ELEMENT_SET_NO": 999, "REV_AT_EPOCH": 4990, "BSTAR": 0, "MEAN_MOTION_DOT": 6.2e-07, "MEAN_MOTION_DDOT": 0}, "tle": {"line1": "1 43055U 17079A   25352.34856720  .00000062  00000+0  00000+0 0  9999", "line2": "2 43055  55.1282 226.4832 0001233 345.8587  14.2435  1.70474068 49906"}}, "geometry": {"type": "Point", "coordinates": [-161.7389075339725, -34.145939129728916]}}, {"type": "Feature", "properties": {"norad_id": 43056, "name": "GSAT0216 (GALILEO 20)", "group": "gnss", "lat": 33.22646011862525, "lon": 19.3065961483855, "alt_km": 23225.237483161876, "timestamp": "2025-12-19T10:50:01.443648+00:00", "meta": {"OBJECT_NAME": "GSAT0216 (GALILEO 20)", "OBJECT_ID": "2017-079B", "EPOCH": "2025-12-16T21:07:19.515072", "MEAN_MOTION": 1.70474167, "ECCENTRICITY": 0.00024195, "INCLINATION": 55.129, "RA_OF_ASC_NODE": 226.5236, "ARG_OF_PERICENTER": 322.2527, "MEAN_ANOMALY": 37.829, "EPHEMERIS_TYPE": 0, "CLASSIFICATION_TYPE": "U", "NORAD_CAT_ID": 43056, "ELEMENT_SET_NO": 999, "REV_AT_EPOCH": 4989, "BSTAR": 0, "MEAN_MOTION_DOT": 5.3e-07, "MEAN_MOTION_DDOT": 0}, "tle": {"line1": "1 43056U 17079B   25350.88008698  .00000053  00000+0  00000+0 0  9990", "line2": "2 43056  55.1290 226.5236 0002419 322.2527  37.8290  1.70474167 49893"}}, "geometry": {"type": "Point", "coordinates": [19.3065961483855, 33.22646011862525]}}, {"type": "Feature", "properties": {"norad_id": 43057, "name": "GSAT0217 (GALILEO 21)", "group": "gnss", "lat": 2.1432487487616476, "lon": -132.0410449040867, "alt_km": 23214.191553976016, "timestamp": "2025-12-19T10:50:01.443659+00:00", "meta": {"OBJECT_NAME": "GSAT0217 (GALILEO 21)", "OBJECT_ID": "2017-079C", "EPOCH": "2025-12-17T16:29:50.691264", "MEAN_MOTION": 1.70474088, "ECCENTRICITY": 0.00027909, "INCLINATION": 55.1268, "RA_OF_ASC_NODE": 226.4994, "ARG_OF_PERICENTER": 347.0606, "MEAN_ANOMALY": 13.035, "EPHEMERIS_TYPE": 0, "CLASSIFICATION_TYPE": "U", "NORAD_CAT_ID": 43057, "ELEMENT_SET_NO": 999, "REV_AT_EPOCH": 4989, "BSTAR": 0, "MEAN_MOTION_DOT": 5.8e-07, "MEAN_MOTION_DDOT": 0}, "tle": {"line1": "1 43057U 17079C   25351.68739226  .00000058  00000+0  00000+0 0  9993", "line2": "2 43057  55.1268 226.4994 0002790 347.0606  13.0350  1.70474088 49899"}}, "geometry": {"type": "Point", "coordinates": [-132.0410449040867, 2.1432487487616476]}}, {"type": "Feature", "properties": {"norad_id": 43058, "name": "GSAT0218 (GALILEO 22)", "group": "gnss", "lat": -37.256236548764086, "lon": 78.47182380761471, "alt_km": 23224.73040906534, "timestamp": "2025-12-19T10:50:01.443673+00:00", "meta": {"OBJECT_NAME": "GSAT0218 (GALILEO 22)", "OBJECT_ID": "2017-079D", "EPOCH": "2025-12-17T21:46:41.589984", "MEAN_MOTION": 1.70474188, "ECCENTRICITY": 0.00029691, "INCLINATION": 55.1269, "RA_OF_ASC_NODE": 226.4911, "ARG_OF_PERICENTER": 304.5931, "MEAN_ANOMALY": 55.4827, "EPHEMERIS_TYPE": 0, "CLASSIFICATION_TYPE": "U", "NORAD_CAT_ID": 43058, "ELEMENT_SET_NO": 999, "REV_AT_EPOCH": 4992, "BSTAR": 0, "MEAN_MOTION_DOT": 5.9e-07, "MEAN_MOTION_DDOT": 0}, "tle": {"line1": "1 43058U 17079D   25351.90742581  .00000059  00000+0  00000+0 0  9998", "line2": "2 43058  55.1269 226.4911 0002969 304.5931  55.4827  1.70474188 49921"}}, "geometry": {"type": "Point", "coordinates": [78.47182380761471, -37.256236548764086]}}]}